ONEWEB-0387             
1 49313U 21090AL  24276.57007664  .00000183  00000+0  41778-3 0  9999
2 49313  87.9272  38.3490 0001520  89.6467 270.4840 13.20771506147630
ONEWEB-0388             
1 49314U 21090AM  24276.87617323 -.00000029  00000+0 -10476-3 0  9994
2 49314  87.9123  68.7438 0001610  98.1377 261.9939 13.19725784144333
ONEWEB-0389             
1 50469U 21132A   24276.29431945  .00000202  00000+0  48699-3 0  9993
2 50469  87.9106 129.9524 0001406  64.9954 295.1323 13.17649652136051
ONEWEB-0390             
1 50470U 21132B   24276.29598822  .00000154  00000+0  36353-3 0  9993
2 50470  87.9109 129.9598 0001850  72.1201 288.0133 13.17647200136053
ONEWEB-0391             
1 50471U 21132C   24276.29769679  .00000134  00000+0  31151-3 0  9993
2 50471  87.9113 129.9513 0001527  42.0072 318.1176 13.17651396136052
ONEWEB-0392             
1 50472U 21132D   24276.32807019  .00000203  00000+0  48895-3 0  9999
2 50472  87.9098 129.9305 0001401  62.7359 297.3915 13.17647560136093
ONEWEB-0393             
1 50473U 21132E   24276.30119109  .00000346  00000+0  85676-3 0  9990
2 50473  87.9110 129.9226 0001497  74.8022 285.3275 13.17647316136081
ONEWEB-0394             
1 50474U 21132F   24276.91056213  .00000138  00000+0  31733-3 0  9998
2 50474  87.9049  99.3072 0001492  85.8030 274.3272 13.18686147139587
